{"type": "FeatureCollection", "features": [ {"type": "Feature", "properties": {"norad_id": 33870, "name": "IRIDIUM 33 DEB", "group": "iridium-33-debris", "lat": -63.84740385823128, "lon": 45.086405838004715, "alt_km": 761.5247429960982, "timestamp": "2025-12-26T03:50:12.478415+00:00", "meta": {"OBJECT_NAME": "IRIDIUM 33 DEB", "OBJECT_ID": "1997-051AP", "EPOCH": "2025-12-25T13:47:27.423744", "MEAN_MOTION": 14.45913655, "ECCENTRICITY": 0.0022685, "INCLINATION": 86.3733, "RA_OF_ASC_NODE": 52.7586, "ARG_OF_PERICENTER": 137.4912, "MEAN_ANOMALY": 353.9762, "EPHEMERIS_TYPE": 0, "CLASSIFICATION_TYPE": "U", "NORAD_CAT_ID": 33870, "ELEMENT_SET_NO": 999, "REV_AT_EPOCH": 88322, "BSTAR": 0.00071363, "MEAN_MOTION_DOT": 2.564e-05, "MEAN_MOTION_DDOT": 0}, "tle": {"line1": "1 33870U 97051AP  25359.57462296  .00002564  00000+0  71363-3 0  9997", "line2": "2 33870  86.3733  52.7586 0022685 137.4912 353.9762 14.45913655883227"}}, "geometry": {"type": "Point", "coordinates": [45.086405838004715, -63.84740385823128]}}, {"type": "Feature", "properties": {"norad_id": 33881, "name": "IRIDIUM 33 DEB", "group": "iridium-33-debris", "lat": -34.71103269665927, "lon": 98.40005024229586, "alt_km": 751.7559426269818, "timestamp": "2025-12-26T03:50:12.478426+00:00", "meta": {"OBJECT_NAME": "IRIDIUM 33 DEB", "OBJECT_ID": "1997-051BA", "EPOCH": "2025-12-24T19:37:00.349824", "MEAN_MOTION": 14.5678795, "ECCENTRICITY": 0.00611156, "INCLINATION": 86.3859, "RA_OF_ASC_NODE": 101.4931, "ARG_OF_PERICENTER": 135.6602, "MEAN_ANOMALY": 353.6404, "EPHEMERIS_TYPE": 0, "CLASSIFICATION_TYPE": "U", "NORAD_CAT_ID": 33881, "ELEMENT_SET_NO": 999, "REV_AT_EPOCH": 87676, "BSTAR": 0.0022055938, "MEAN_MOTION_DOT": 0.0001015, "MEAN_MOTION_DDOT": 0}, "tle": {"line1": "1 33881U 97051BA  25358.81736516  .00010150  00000+0  22056-2 0  9998", "line2": "2 33881  86.3859 101.4931 0061115 135.6602 353.6404 14.56787950876761"}}, "geometry": {"type": "Point", "coordinates": [98.40005024229586, -34.71103269665927]}}, {"type": "Feature", "properties": {"norad_id": 33884, "name": "IRIDIUM 33 DEB", "group": "iridium-33-debris", "lat": -18.751787732035815, "lon": -175.00599103040332, "alt_km": 639.8316343934985, "timestamp": "2025-12-26T03:50:12.478438+00:00", "meta": {"OBJECT_NAME": "IRIDIUM 33 DEB", "OBJECT_ID": "1997-051BD", "EPOCH": "2025-12-25T19:21:18.080064", "MEAN_MOTION": 14.77690478, "ECCENTRICITY": 0.0008813, "INCLINATION": 86.3706, "RA_OF_ASC_NODE": 3.9188, "ARG_OF_PERICENTER": 271.4725, "MEAN_ANOMALY": 208.5094, "EPHEMERIS_TYPE": 0, "CLASSIFICATION_TYPE": "U", "NORAD_CAT_ID": 33884, "ELEMENT_SET_NO": 999, "REV_AT_EPOCH": 89040, "BSTAR": 0.001629, "MEAN_MOTION_DOT": 0.00011704, "MEAN_MOTION_DDOT": 0}, "tle": {"line1": "1 33884U 97051BD  25359.80645926  .00011704  00000+0  16290-2 0  9994", "line2": "2 33884  86.3706   3.9188 0008813 271.4725 208.5094 14.77690478890407"}}, "geometry": {"type": "Point", "coordinates": [-175.00599103040332, -18.751787732035815]}}, {"type": "Feature", "properties": {"norad_id": 33886, "name": "IRIDIUM 33 DEB", "group": "iridium-33-debris", "lat": -76.81208513038315, "lon": 45.9141419885742, "alt_km": 778.6607973377659, "timestamp": "2025-12-26T03:50:12.478449+00:00", "meta": {"OBJECT_NAME": "IRIDIUM 33 DEB", "OBJECT_ID": "1997-051BF", "EPOCH": "2025-12-25T15:21:52.682112", "MEAN_MOTION": 14.36066491, "ECCENTRICITY": 0.0013547, "INCLINATION": 86.3819, "RA_OF_ASC_NODE": 61.7984, "ARG_OF_PERICENTER": 196.0416, "MEAN_ANOMALY": 281.5931, "EPHEMERIS_TYPE": 0, "CLASSIFICATION_TYPE": "U", "NORAD_CAT_ID": 33886, "ELEMENT_SET_NO": 999, "REV_AT_EPOCH": 88237, "BSTAR": 0.00019058, "MEAN_MOTION_DOT": 5.74e-06, "MEAN_MOTION_DDOT": 0}, "tle": {"line1": "1 33886U 97051BF  25359.64019308  .00000574  00000+0  19058-3 0  9996", "line2": "2 33886  86.3819  61.7984 0013547 196.0416 281.5931 14.36066491882374"}}, "geometry": {"type": "Point", "coordinates": [45.9141419885742, -76.81208513038315]}}, {"type": "Feature", "properties": {"norad_id": 33887, "name": "IRIDIUM 33 DEB", "group": "iridium-33-debris", "lat": -83.60898432409255, "lon": -37.63384251956569, "alt_km": 775.760368672165, "timestamp": "2025-12-26T03:50:12.478460+00:00", "meta": {"OBJECT_NAME": "IRIDIUM 33 DEB", "OBJECT_ID": "1997-051BG", "EPOCH": "2025-12-25T01:50:13.201152", "MEAN_MOTION": 14.37231733, "ECCENTRICITY": 0.00057849, "INCLINATION": 86.3043, "RA_OF_ASC_NODE": 358.0753, "ARG_OF_PERICENTER": 179.6912, "MEAN_ANOMALY": 253.8578, "EPHEMERIS_TYPE": 0, "CLASSIFICATION_TYPE": "U", "NORAD_CAT_ID": 33887, "ELEMENT_SET_NO": 999, "REV_AT_EPOCH": 88342, "BSTAR": 0.00014791728, "MEAN_MOTION_DOT": 4.6e-06, "MEAN_MOTION_DDOT": 0}, "tle": {"line1": "1 33887U 97051BG  25359.07654168  .00000460  00000+0  14792-3 0  9997", "line2": "2 33887  86.3043 358.0753 0005784 179.6912 253.8578 14.37231733883422"}}, "geometry": {"type": "Point", "coordinates": [-37.63384251956569, -83.60898432409255]}}, {"type": "Feature", "properties": {"norad_id": 33953, "name": "IRIDIUM 33 DEB", "group": "iridium-33-debris", "lat": -73.13361961578956, "lon": 35.911876441701544, "alt_km": 724.080974475838, "timestamp": "2025-12-26T03:50:12.478471+00:00", "meta": {"OBJECT_NAME": "IRIDIUM 33 DEB", "OBJECT_ID": "1997-051BN", "EPOCH": "2025-12-25T15:33:55.183968", "MEAN_MOTION": 14.55441742, "ECCENTRICITY": 0.001753, "INCLINATION": 86.3832, "RA_OF_ASC_NODE": 48.1755, "ARG_OF_PERICENTER": 63.1805, "MEAN_ANOMALY": 66.1443, "EPHEMERIS_TYPE": 0, "CLASSIFICATION_TYPE": "U", "NORAD_CAT_ID": 33953, "ELEMENT_SET_NO": 999, "REV_AT_EPOCH": 88491, "BSTAR": 0.0011189, "MEAN_MOTION_DOT": 4.893e-05, "MEAN_MOTION_DDOT": 0}, "tle": {"line1": "1 33953U 97051BN  25359.64855537  .00004893  00000+0  11189-2 0  9997", "line2": "2 33953  86.3832  48.1755 0017530  63.1805  66.1443 14.55441742884915"}}, "geometry": {"type": "Point", "coordinates": [35.911876441701544, -73.13361961578956]}}, {"type": "Feature", "properties": {"norad_id": 33960, "name": "IRIDIUM 33 DEB", "group": "iridium-33-debris", "lat": 74.76144763306561, "lon": 89.26671706577632, "alt_km": 601.8605490142954, "timestamp": "2025-12-26T03:50:12.478482+00:00", "meta": {"OBJECT_NAME": "IRIDIUM 33 DEB", "OBJECT_ID": "1997-051BV", "EPOCH": "2025-12-25T19:31:33.400128", "MEAN_MOTION": 14.85848128, "ECCENTRICITY": 0.0007078, "INCLINATION": 86.2535, "RA_OF_ASC_NODE": 283.3484, "ARG_OF_PERICENTER": 39.5343, "MEAN_ANOMALY": 14.0569, "EPHEMERIS_TYPE": 0, "CLASSIFICATION_TYPE": "U", "NORAD_CAT_ID": 33960, "ELEMENT_SET_NO": 999, "REV_AT_EPOCH": 89061, "BSTAR": 0.0032209, "MEAN_MOTION_DOT": 0.00028154, "MEAN_MOTION_DDOT": 0}, "tle": {"line1": "1 33960U 97051BV  25359.81358102  .00028154  00000+0  32209-2 0  9992", "line2": "2 33960  86.2535 283.3484 0007078  39.5343  14.0569 14.85848128890611"}}, "geometry": {"type": "Point", "coordinates": [89.26671706577632, 74.76144763306561]}}, {"type": "Feature", "properties": {"norad_id": 33966, "name": "IRIDIUM 33 DEB", "group": "iridium-33-debris", "lat": 45.3120520595382, "lon": -143.39117073268625, "alt_km": 716.8908071716742, "timestamp": "2025-12-26T03:50:12.478493+00:00", "meta": {"OBJECT_NAME": "IRIDIUM 33 DEB", "OBJECT_ID": "1997-051CB", "EPOCH": "2025-12-25T12:53:56.995008", "MEAN_MOTION": 14.49641936, "ECCENTRICITY": 0.0008794, "INCLINATION": 86.391, "RA_OF_ASC_NODE": 40.5342, "ARG_OF_PERICENTER": 148.7203, "MEAN_ANOMALY": 339.7416, "EPHEMERIS_TYPE": 0, "CLASSIFICATION_TYPE": "U", "NORAD_CAT_ID": 33966, "ELEMENT_SET_NO": 999, "REV_AT_EPOCH": 88627, "BSTAR": 0.00048825, "MEAN_MOTION_DOT": 1.896e-05, "MEAN_MOTION_DDOT": 0}, "tle": {"line1": "1 33966U 97051CB  25359.53746522  .00001896  00000+0  48825-3 0  9990", "line2": "2 33966  86.3910  40.5342 0008794 148.7203 339.7416 14.49641936886278"}}, "geometry": {"type": "Point", "coordinates": [-143.39117073268625, 45.3120520595382]}}, {"type": "Feature", "properties": {"norad_id": 34071, "name": "IRIDIUM 33 DEB", "group": "iridium-33-debris", "lat": -15.01514522585416, "lon": -167.02344877542814, "alt_km": 735.8272806119339, "timestamp": "2025-12-26T03:50:12.478504+00:00", "meta": {"OBJECT_NAME": "IRIDIUM 33 DEB", "OBJECT_ID": "1997-051CE", "EPOCH": "2025-12-25T18:39:26.278272", "MEAN_MOTION": 14.4952139, "ECCENTRICITY": 0.0009824, "INCLINATION": 86.3452, "RA_OF_ASC_NODE": 12.1604, "ARG_OF_PERICENTER": 73.0032, "MEAN_ANOMALY": 287.2248, "EPHEMERIS_TYPE": 0, "CLASSIFICATION_TYPE": "U", "NORAD_CAT_ID": 34071, "ELEMENT_SET_NO": 999, "REV_AT_EPOCH": 88523, "BSTAR": 0.00062869, "MEAN_MOTION_DOT": 2.43e-05, "MEAN_MOTION_DDOT": 0}, "tle": {"line1": "1 34071U 97051CE  25359.77738748  .00002430  00000+0  62869-3 0  9994", "line2": "2 34071  86.3452  12.1604 0009824  73.0032 287.2248 14.49521390885234"}}, "geometry": {"type": "Point", "coordinates": [-167.02344877542814, -15.01514522585416]}}, {"type": "Feature", "properties": {"norad_id": 34077, "name": "IRIDIUM 33 DEB", "group": "iridium-33-debris", "lat": 60.85727391687245, "lon": 52.105522333639065, "alt_km": 668.7277630977014, "timestamp": "2025-12-26T03:50:12.478516+00:00", "meta": {"OBJECT_NAME": "IRIDIUM 33 DEB", "OBJECT_ID": "1997-051CL", "EPOCH": "2025-12-25T15:09:22.159872", "MEAN_MOTION": 14.64997982, "ECCENTRICITY": 0.0008673, "INCLINATION": 86.3846, "RA_OF_ASC_NODE": 45.8272, "ARG_OF_PERICENTER": 357.0733, "MEAN_ANOMALY": 159.1877, "EPHEMERIS_TYPE": 0, "CLASSIFICATION_TYPE": "U", "NORAD_CAT_ID": 34077, "ELEMENT_SET_NO": 999, "REV_AT_EPOCH": 88521, "BSTAR": 0.0015833, "MEAN_MOTION_DOT": 8.51e-05, "MEAN_MOTION_DDOT": 0}, "tle": {"line1": "1 34077U 97051CL  25359.63150648  .00008510  00000+0  15833-2 0  9995", "line2": "2 34077  86.3846  45.8272 0008673 357.0733 159.1877 14.64997982885219"}}, "geometry": {"type": "Point", "coordinates": [52.105522333639065, 60.85727391687245]}}]}